2023-133C               
1 57758U 23133C   23246.82315025  .00000011  00000+0  00000+0 0  9997
2 57758  80.9927 263.9669 0007857 214.2618 262.9578 13.85800851   166
2023-133D               
1 57759U 23133D   23246.46129418  .00000011  00000+0  00000+0 0  9997
2 57759  80.9987 264.3158 0007738 216.8451 255.8787 13.85736712   114
2023-133E               
1 57760U 23133E   23246.47144679  .00000011  00000+0  00000+0 0  9996
2 57760  80.9978 264.3050 0007708 217.3739 305.9631 13.85732239   114
2023-133F               
1 57761U 23133F   23248.75135833  .00000069  00000+0  51165-4 0  9998
2 57761  80.9951 262.1204 0004342 242.3156 117.7559 13.84766625   433
2023-133G               
1 57762U 23133G   23248.75034340  .00000096  00000+0  75074-4 0  9995
2 57762  80.9965 262.1194 0005173 217.6114 142.4681 13.85219988   436
2023-133H               
1 57763U 23133H   23248.75081058  .00000055  00000+0  39014-4 0  9993
2 57763  80.9912 262.1189 0004629 227.6127 132.4637 13.85011096   433
2023-133J               
1 57764U 23133J   23248.74993698  .00000108  00000+0  85501-4 0  9996
2 57764  80.9959 262.1187 0005641 209.9327 150.1507 13.85401617   438
2023-133K               
1 57765U 23133K   23248.75068342  .00000099  00000+0  78173-4 0  9993
2 57765  80.9999 262.1208 0004760 224.7434 135.3338 13.85068205   431
2023-133L               
1 57766U 23133L   23248.75018348  .00000069  00000+0  50897-4 0  9995
2 57766  80.9988 262.1195 0005335 214.4468 145.6343 13.85291406   438
2023-133M               
1 57767U 23133M   23246.47201072  .00000011  00000+0  00000+0 0  9994
2 57767  80.9925 264.3105 0004366 224.7606 298.9201 13.84888675   115
2023-133N               
1 57768U 23133N   23248.75059585  .00000123  00000+0  98519-4 0  9999
2 57768  80.9911 262.1185 0004870 222.9677 137.1099 13.85107168   440
2023-133P               
1 57769U 23133P   23247.62451133  .00000011  00000+0  00000+0 0  9999
2 57769  81.0001 263.2023 0004968 222.4039 286.0227 13.85163883   275
2023-135A               
1 57792U 23135A   23249.49524421 -.00000063  00000+0  38704-4 0  9990
2 57792  49.9712  99.4276 0011897 307.5095  52.4737 14.29216370   166
2023-135B               
1 57793U 23135B   23249.42519311 -.00000062  00000+0  38664-4 0  9990
2 57793  49.9685  99.7230 0012566 310.1535  49.8278 14.29398216   151
2023-135C               
1 57794U 23135C   23249.56494907  .00000233  00000+0  15351-3 0  9995
2 57794  49.9724  99.1297 0012345 313.7401  46.2491 14.29487250   176
2023-135D               
1 57795U 23135D   23249.56493599  .00000093  00000+0  99064-4 0  9990
2 57795  49.9731  99.1289 0013145 311.4107  48.5677 14.29496521   175
2023-135E               
1 57796U 23135E   23249.64184082  .01405301  95642-5  79213-3 0  9991
2 57796  49.9232  97.9251 0472585 353.5254 104.9306 15.26109412   190
